NORAD_CAT_ID,OBJECT_NAME,OBJECT_TYPE,EPOCH,MEAN_MOTION,ECCENTRICITY,INCLINATION,RA_OF_ASC_NODE,ARG_OF_PERICENTER,MEAN_ANOMALY,BSTAR,MEAN_MOTION_DOT,MEAN_MOTION_DDOT,TLE_LINE0,TLE_LINE1,TLE_LINE2,SEMIMAJOR_AXIS,PERIOD,APOGEE,PERIGEE,DECAYED
53965.0,STARLINK-4578,PAYLOAD,2023-02-24 18:52:31,15.08864924,9.09e-05,53.2159,162.3071,98.1386,261.9709,0.001821,0.00028832,0.0,0 STARLINK-4578,1 53965U 22125B   23055.78647195  .00028832  00000-0  18210-2 0  9999,2 53965  53.2159 162.3071 0000909  98.1386 261.9709 15.08864924 21912,6917.804,95.436,540.298,539.04,0.0
53965.0,STARLINK-4578,PAYLOAD,2023-02-24 23:38:41,15.08835143,0.0001331,53.216,161.4158,85.8996,274.2148,5.9358e-05,6.57e-06,0.0,0 STARLINK-4578,1 53965U 22125B   23055.98519736  .00000657  00000-0  59358-4 0  9995,2 53965  53.2160 161.4158 0001331  85.8996 274.2148 15.08835143 22017,6917.895,95.438,540.681,538.839,0.0
53965.0,STARLINK-4578,PAYLOAD,2023-02-25 12:21:46,15.0882794,8.51e-05,53.2157,159.0372,91.4125,268.6965,0.00080976,0.00012619,0.0,0 STARLINK-4578,1 53965U 22125B   23056.51512228  .00012619  00000-0  80976-3 0  9994,2 53965  53.2157 159.0372 0000851  91.4125 268.6965 15.08827940 22028,6917.917,95.438,540.371,539.194,0.0
53965.0,STARLINK-4578,PAYLOAD,2023-02-25 17:07:56,15.0883042,9.1e-05,53.2154,158.1468,77.7851,282.3243,0.00096336,0.00015073,0.0,0 STARLINK-4578,1 53965U 22125B   23056.71384403  .00015073  00000-0  96336-3 0  9992,2 53965  53.2154 158.1468 0000910  77.7851 282.3243 15.08830420 22052,6917.91,95.438,540.404,539.145,0.0
53965.0,STARLINK-4578,PAYLOAD,2023-02-26 09:01:47,15.08856615,7.09e-05,53.2153,155.1719,84.8153,275.292,0.0011927,0.00018753,0.0,0 STARLINK-4578,1 53965U 22125B   23057.37624082  .00018753  00000-0  11927-2 0  9995,2 53965  53.2153 155.1719 0000709  84.8153 275.2920 15.08856615 22223,6917.83,95.437,540.185,539.204,0.0
53965.0,STARLINK-4578,PAYLOAD,2023-02-26 10:37:10,15.08862467,7.97e-05,53.2155,154.8747,81.5572,278.5511,0.0013382,0.00021087,0.0,0 STARLINK-4578,1 53965U 22125B   23057.44247975  .00021087  00000-0  13382-2 0  9996,2 53965  53.2155 154.8747 0000797  81.5572 278.5511 15.08862467 22165,6917.812,95.436,540.228,539.125,0.0
53965.0,STARLINK-4578,PAYLOAD,2023-02-26 16:58:41,15.08914465,8.94e-05,53.215,153.6839,85.9125,274.197,0.0028159,0.00044904,0.0,0 STARLINK-4578,1 53965U 22125B   23057.70742607  .00044904  00000-0  28159-2 0  9998,2 53965  53.2150 153.6839 0000894  85.9125 274.1970 15.08914465 22278,6917.653,95.433,540.136,538.899,0.0
53965.0,STARLINK-4578,PAYLOAD,2023-02-27 10:27:56,15.08850381,0.0001675,53.2151,150.4128,125.9925,234.1223,0.0010218,0.00016016,0.0,0 STARLINK-4578,1 53965U 22125B   23058.43607171  .00016016  00000-0  10218-2 0  9995,2 53965  53.2151 150.4128 0001675 125.9925 234.1223 15.08850381 22381,6917.849,95.437,540.872,538.555,0.0
53965.0,STARLINK-4578,PAYLOAD,2023-02-27 18:24:52,15.0885276,0.000107,53.2143,148.9241,117.0616,243.0486,0.00065153,0.000101,0.0,0 STARLINK-4578,1 53965U 22125B   23058.76727033  .00010100  00000-0  65153-3 0  9998,2 53965  53.2143 148.9241 0001070 117.0616 243.0486 15.08852760 22369,6917.841,95.437,540.447,538.966,0.0
53965.0,STARLINK-4578,PAYLOAD,2023-02-27 23:11:01,15.08840877,0.000112,53.2147,148.0302,121.8666,238.2436,0.00091818,0.00014355,0.0,0 STARLINK-4578,1 53965U 22125B   23058.96599204  .00014355  00000-0  91818-3 0  9990,2 53965  53.2147 148.0302 0001120 121.8666 238.2436 15.08840877 22464,6917.878,95.437,540.518,538.968,0.0
53965.0,STARLINK-4578,PAYLOAD,2023-02-28 11:54:06,15.08890983,0.0001,53.2144,145.6538,99.7461,260.3644,0.0024883,0.00039591,0.0,0 STARLINK-4578,1 53965U 22125B   23059.49590304  .00039591  00000-0  24883-2 0  9997,2 53965  53.2144 145.6538 0001000  99.7461 260.3644 15.08890983 22547,6917.725,95.434,540.281,538.898,0.0
53965.0,STARLINK-4578,PAYLOAD,2023-02-28 13:29:28,15.08898824,9.78e-05,53.2143,145.356,102.6733,257.4368,0.0027918,0.00044496,0.0,0 STARLINK-4578,1 53965U 22125B   23059.56214053  .00044496  00000-0  27918-2 0  9991,2 53965  53.2143 145.3560 0000978 102.6733 257.4368 15.08898824 22482,6917.701,95.434,540.242,538.889,0.0
53965.0,STARLINK-4578,PAYLOAD,2023-02-28 23:01:48,15.08847566,0.000146,53.2155,143.5732,70.4157,289.6993,0.00031879,4.79e-05,0.0,0 STARLINK-4578,1 53965U 22125B   23059.95958639  .00004790  00000-0  31879-3 0  9994,2 53965  53.2155 143.5732 0001460  70.4157 289.6993 15.08847566 22618,6917.857,95.437,540.732,538.712,0.0
53965.0,STARLINK-4578,PAYLOAD,2023-03-01 11:44:55,15.08783226,0.0001803,53.215,141.1931,89.7716,270.3483,0.0013684,0.00021523,0.0,0 STARLINK-4578,1 53965U 22125B   23060.48953323  .00021523  00000-0  13684-2 0  9995,2 53965  53.2150 141.1931 0001803  89.7716 270.3483 15.08783226 22694,6918.054,95.441,541.166,538.672,0.0
53965.0,STARLINK-4578,PAYLOAD,2023-03-01 16:31:05,15.08783368,0.0002014,53.2151,140.3009,90.7508,269.3715,0.0013402,0.00021073,0.0,0 STARLINK-4578,1 53965U 22125B   23060.68826182  .00021073  00000-0  13402-2 0  9997,2 53965  53.2151 140.3009 0002014  90.7508 269.3715 15.08783368 22657,6918.053,95.441,541.312,538.525,0.0
53965.0,STARLINK-4578,PAYLOAD,2023-03-02 16:21:53,15.08865478,0.0001848,53.2153,135.8421,81.4955,278.6246,0.002226,0.00035342,0.0,0 STARLINK-4578,1 53965U 22125B   23061.68186719  .00035342  00000-0  22260-2 0  9999,2 53965  53.2153 135.8421 0001848  81.4955 278.6246 15.08865478 22872,6917.803,95.436,540.946,538.389,0.0
53965.0,STARLINK-4578,PAYLOAD,2023-03-03 05:04:57,15.08890349,0.0002004,53.2154,133.4643,75.0832,285.0382,0.0022835,0.00036292,0.0,0 STARLINK-4578,1 53965U 22125B   23062.21177910  .00036292  00000-0  22835-2 0  9995,2 53965  53.2154 133.4643 0002004  75.0832 285.0382 15.08890349 22958,6917.726,95.434,540.978,538.205,0.0
53965.0,STARLINK-4578,PAYLOAD,2023-03-03 11:26:29,15.08907248,0.0001932,53.2159,132.2746,79.2537,280.8673,0.0026679,0.00042507,0.0,0 STARLINK-4578,1 53965U 22125B   23062.47672891  .00042507  00000-0  26679-2 0  9997,2 53965  53.2159 132.2746 0001932  79.2537 280.8673 15.08907248 22921,6917.675,95.433,540.876,538.203,0.0
53965.0,STARLINK-4578,PAYLOAD,2023-03-03 20:58:47,15.08846985,0.0001586,53.216,130.4891,83.6878,276.4295,-0.0018389,-0.00029441,0.0,0 STARLINK-4578,1 53965U 22125B   23062.87416311 -.00029441  00000-0 -18389-2 0  9997,2 53965  53.2160 130.4891 0001586  83.6878 276.4295 15.08846985 22983,6917.859,95.437,540.821,538.627,0.0
53965.0,STARLINK-4578,PAYLOAD,2023-03-04 08:06:29,15.08848256,0.0001304,53.217,128.4072,99.4614,260.6525,0.00078333,0.00012203,0.0,0 STARLINK-4578,1 53965U 22125B   23063.33784187  .00012203  00000-0  78333-3 0  9990,2 53965  53.2170 128.4072 0001304  99.4614 260.6525 15.08848256 23124,6917.855,95.437,540.622,538.818,0.0
53965.0,STARLINK-4578,PAYLOAD,2023-03-04 11:17:15,15.08853054,0.0001541,53.2162,127.8127,88.4186,271.6983,0.0015938,0.00025177,0.0,0 STARLINK-4578,1 53965U 22125B   23063.47032351  .00025177  00000-0  15938-2 0  9999,2 53965  53.2162 127.8127 0001541  88.4186 271.6983 15.08853054 23070,6917.84,95.437,540.772,538.639,0.0
53965.0,STARLINK-4578,PAYLOAD,2023-03-04 16:03:25,15.08867513,0.000146,53.2163,126.9205,98.5955,261.5202,0.0023455,0.00037267,0.0,0 STARLINK-4578,1 53965U 22125B   23063.66903983  .00037267  00000-0  23455-2 0  9994,2 53965  53.2163 126.9205 0001460  98.5955 261.5202 15.08867513 23172,6917.796,95.436,540.671,538.651,0.0
53965.0,STARLINK-4578,PAYLOAD,2023-03-04 20:49:35,15.08821678,0.000184,53.2165,126.0268,91.1235,268.9968,-0.00046305,-7.646e-05,0.0,0 STARLINK-4578,1 53965U 22125B   23063.86776759 -.00007646  00000-0 -46305-3 0  9995,2 53965  53.2165 126.0268 0001840  91.1235 268.9968 15.08821678 23134,6917.936,95.439,541.074,538.528,0.0
53965.0,STARLINK-4578,PAYLOAD,2023-03-05 07:57:17,15.08841489,0.0001293,53.2158,123.9476,107.4163,252.6971,0.00207,0.00032811,0.0,0 STARLINK-4578,1 53965U 22125B   23064.33145056  .00032811  00000-0  20700-2 0  9998,2 53965  53.2158 123.9476 0001293 107.4163 252.6971 15.08841489 23200,6917.876,95.437,540.635,538.846,0.0
53965.0,STARLINK-4578,PAYLOAD,2023-03-05 09:32:40,15.08845793,0.0001271,53.2158,123.6502,107.5185,252.5946,0.0023464,0.00037259,0.0,0 STARLINK-4578,1 53965U 22125B   23064.39769003  .00037259  00000-0  23464-2 0  9999,2 53965  53.2158 123.6502 0001271 107.5185 252.5946 15.08845793 23289,6917.863,95.437,540.607,538.848,0.0
53965.0,STARLINK-4578,PAYLOAD,2023-03-06 03:01:54,15.08864638,0.000167,53.2155,120.379,115.5732,244.5432,0.0018351,0.00029058,0.0,0 STARLINK-4578,1 53965U 22125B   23065.12632878  .00029058  00000-0  18351-2 0  9997,2 53965  53.2155 120.3790 0001670 115.5732 244.5432 15.08864638 23391,6917.805,95.436,540.825,538.515,0.0
53965.0,STARLINK-4578,PAYLOAD,2023-03-06 10:58:50,15.08870338,0.0001295,53.2145,118.8911,90.5817,269.5323,0.0013386,0.00021098,0.0,0 STARLINK-4578,1 53965U 22125B   23065.45752482  .00021098  00000-0  13386-2 0  9996,2 53965  53.2145 118.8911 0001295  90.5817 269.5323 15.08870338 23442,6917.788,95.436,540.549,538.757,0.0
53965.0,STARLINK-4578,PAYLOAD,2023-03-06 15:44:59,15.08867643,0.0001286,53.2143,117.9998,88.3723,271.7417,0.0008625,0.00013476,0.0,0 STARLINK-4578,1 53965U 22125B   23065.65624230  .00013476  00000-0  86250-3 0  9999,2 53965  53.2143 117.9998 0001286  88.3723 271.7417 15.08867643 23473,6917.796,95.436,540.551,538.771,0.0
53965.0,STARLINK-4578,PAYLOAD,2023-03-06 20:31:09,15.08826699,0.000156,53.2151,117.1082,107.8347,252.2815,-0.00013822,-2.486e-05,0.0,0 STARLINK-4578,1 53965U 22125B   23065.85497531 -.00002486  00000-0 -13822-3 0  9999,2 53965  53.2151 117.1082 0001560 107.8347 252.2815 15.08826699 23430,6917.921,95.438,540.865,538.707,0.0
53965.0,STARLINK-4578,PAYLOAD,2023-03-07 09:14:16,15.08804689,0.0001179,53.2132,114.7266,113.3675,246.7442,0.0015662,0.00024702,0.0,0 STARLINK-4578,1 53965U 22125B   23066.38491008  .00024702  00000-0  15662-2 0  9997,2 53965  53.2132 114.7266 0001179 113.3675 246.7442 15.08804689 23583,6917.988,95.44,540.669,539.038,0.0
